{
  "type": "FeatureCollection",
  "features": [
    {
      "type": "Feature",
      "properties": {
        "norad_id": 25590,
        "name": "COSMOS 2361",
        "group": "musson",
        "lat": -17.95399407439275,
        "lon": 171.53278230995932,
        "alt_km": 992.0801479774973,
        "timestamp": "2025-12-05T18:53:13.551760+00:00",
        "meta_object_name": "COSMOS 2361",
        "meta_object_id": "1998-076A",
        "meta_epoch": "2025-12-05T07:28:54.971904",
        "meta_mean_motion": 13.73216242,
        "meta_eccentricity": 0.00301222,
        "meta_inclination": 82.934,
        "meta_ra_of_asc_node": 349.5808,
        "meta_arg_of_pericenter": 287.1882,
        "meta_mean_anomaly": 83.1984,
        "meta_ephemeris_type": 0,
        "meta_classification_type": "U",
        "meta_norad_cat_id": 25590,
        "meta_element_set_no": 999,
        "meta_rev_at_epoch": 35009,
        "meta_bstar": 8.701016e-05,
        "meta_mean_motion_dot": 9.6e-07,
        "meta_mean_motion_ddot": 0,
        "tle_line1": "1 25590U 98076A   25339.31174736  .00000096  00000+0  87010-4 0  9999",
        "tle_line2": "2 25590  82.9340 349.5808 0030122 287.1882  83.1984 13.73216242350091"
      },
      "geometry": {
        "type": "Point",
        "coordinates": [
          171.53278230995932,
          -17.95399407439275
        ]
      }
    },
    {
      "type": "Feature",
      "properties": {
        "norad_id": 26818,
        "name": "COSMOS 2378",
        "group": "musson",
        "lat": -66.97561066623746,
        "lon": -158.13509162219452,
        "alt_km": 970.3295479318449,
        "timestamp": "2025-12-05T18:53:13.551782+00:00",
        "meta_object_name": "COSMOS 2378",
        "meta_object_id": "2001-023A",
        "meta_epoch": "2025-12-05T04:00:49.451328",
        "meta_mean_motion": 13.74141149,
        "meta_eccentricity": 0.00320003,
        "meta_inclination": 82.9279,
        "meta_ra_of_asc_node": 5.3402,
        "meta_arg_of_pericenter": 226.488,
        "meta_mean_anomaly": 197.365,
        "meta_ephemeris_type": 0,
        "meta_classification_type": "U",
        "meta_norad_cat_id": 26818,
        "meta_element_set_no": 999,
        "meta_rev_at_epoch": 22819,
        "meta_bstar": 9.7506985e-05,
        "meta_mean_motion_dot": 1.07e-06,
        "meta_mean_motion_ddot": 0,
        "tle_line1": "1 26818U 01023A   25339.16723902  .00000107  00000+0  97507-4 0  9992",
        "tle_line2": "2 26818  82.9279   5.3402 0032000 226.4880 197.3650 13.74141149228191"
      },
      "geometry": {
        "type": "Point",
        "coordinates": [
          -158.13509162219452,
          -66.97561066623746
        ]
      }
    },
    {
      "type": "Feature",
      "properties": {
        "norad_id": 27436,
        "name": "COSMOS 2389",
        "group": "musson",
        "lat": 68.20657999555638,
        "lon": -29.837750687832987,
        "alt_km": 939.9070754971199,
        "timestamp": "2025-12-05T18:53:13.551795+00:00",
        "meta_object_name": "COSMOS 2389",
        "meta_object_id": "2002-026A",
        "meta_epoch": "2025-12-05T06:53:58.226208",
        "meta_mean_motion": 13.75153392,
        "meta_eccentricity": 0.00477566,
        "meta_inclination": 82.9495,
        "meta_ra_of_asc_node": 312.5021,
        "meta_arg_of_pericenter": 80.9916,
        "meta_mean_anomaly": 37.1473,
        "meta_ephemeris_type": 0,
        "meta_classification_type": "U",
        "meta_norad_cat_id": 27436,
        "meta_element_set_no": 999,
        "meta_rev_at_epoch": 18046,
        "meta_bstar": 6.8451198e-05,
        "meta_mean_motion_dot": 8.2e-07,
        "meta_mean_motion_ddot": 0,
        "tle_line1": "1 27436U 02026A   25339.28747947  .00000082  00000+0  68451-4 0  9999",
        "tle_line2": "2 27436  82.9495 312.5021 0047756  80.9916  37.1473 13.75153392180460"
      },
      "geometry": {
        "type": "Point",
        "coordinates": [
          -29.837750687832987,
          68.20657999555638
        ]
      }
    },
    {
      "type": "Feature",
      "properties": {
        "norad_id": 27818,
        "name": "COSMOS 2398",
        "group": "musson",
        "lat": 82.85659067084384,
        "lon": 16.812022229398707,
        "alt_km": 965.1121616236014,
        "timestamp": "2025-12-05T18:53:13.551807+00:00",
        "meta_object_name": "COSMOS 2398",
        "meta_object_id": "2003-023A",
        "meta_epoch": "2025-12-05T06:44:35.668032",
        "meta_mean_motion": 13.7238464,
        "meta_eccentricity": 0.00322932,
        "meta_inclination": 82.9477,
        "meta_ra_of_asc_node": 278.195,
        "meta_arg_of_pericenter": 131.8333,
        "meta_mean_anomaly": 341.0113,
        "meta_ephemeris_type": 0,
        "meta_classification_type": "U",
        "meta_norad_cat_id": 27818,
        "meta_element_set_no": 999,
        "meta_rev_at_epoch": 12714,
        "meta_bstar": 7.6904641e-05,
        "meta_mean_motion_dot": 8.6e-07,
        "meta_mean_motion_ddot": 0,
        "tle_line1": "1 27818U 03023A   25339.28096838  .00000086  00000+0  76905-4 0  9994",
        "tle_line2": "2 27818  82.9477 278.1950 0032293 131.8333 341.0113 13.72384640127144"
      },
      "geometry": {
        "type": "Point",
        "coordinates": [
          16.812022229398707,
          82.85659067084384
        ]
      }
    },
    {
      "type": "Feature",
      "properties": {
        "norad_id": 28380,
        "name": "COSMOS 2407",
        "group": "musson",
        "lat": -9.355957259191213,
        "lon": 39.20642675816165,
        "alt_km": 993.8368820190217,
        "timestamp": "2025-12-05T18:53:13.551818+00:00",
        "meta_object_name": "COSMOS 2407",
        "meta_object_id": "2004-028A",
        "meta_epoch": "2025-12-05T04:33:41.464800",
        "meta_mean_motion": 13.76312403,
        "meta_eccentricity": 0.00404995,
        "meta_inclination": 82.9614,
        "meta_ra_of_asc_node": 218.482,
        "meta_arg_of_pericenter": 75.3218,
        "meta_mean_anomaly": 37.7698,
        "meta_ephemeris_type": 0,
        "meta_classification_type": "U",
        "meta_norad_cat_id": 28380,
        "meta_element_set_no": 999,
        "meta_rev_at_epoch": 7319,
        "meta_bstar": 0.00010977847,
        "meta_mean_motion_dot": 1.23e-06,
        "meta_mean_motion_ddot": 0,
        "tle_line1": "1 28380U 04028A   25339.19006325  .00000123  00000+0  10978-3 0  9996",
        "tle_line2": "2 28380  82.9614 218.4820 0040499  75.3218  37.7698 13.76312403 73190"
      },
      "geometry": {
        "type": "Point",
        "coordinates": [
          39.20642675816165,
          -9.355957259191213
        ]
      }
    },
    {
      "type": "Feature",
      "properties": {
        "norad_id": 28521,
        "name": "COSMOS 2414",
        "group": "musson",
        "lat": 17.08445487282151,
        "lon": 7.737401303917311,
        "alt_km": 906.9349853734238,
        "timestamp": "2025-12-05T18:53:13.551830+00:00",
        "meta_object_name": "COSMOS 2414",
        "meta_object_id": "2005-002A",
        "meta_epoch": "2025-12-05T02:32:05.037504",
        "meta_mean_motion": 13.87901518,
        "meta_eccentricity": 0.00404254,
        "meta_inclination": 82.9499,
        "meta_ra_of_asc_node": 190.4323,
        "meta_arg_of_pericenter": 161.1372,
        "meta_mean_anomaly": 199.13,
        "meta_ephemeris_type": 0,
        "meta_classification_type": "U",
        "meta_norad_cat_id": 28521,
        "meta_element_set_no": 999,
        "meta_rev_at_epoch": 5689,
        "meta_bstar": 0.00010537939,
        "meta_mean_motion_dot": 1.42e-06,
        "meta_mean_motion_ddot": 0,
        "tle_line1": "1 28521U 05002A   25339.10561386  .00000142  00000+0  10538-3 0  9993",
        "tle_line2": "2 28521  82.9499 190.4323 0040425 161.1372 199.1300 13.87901518 56893"
      },
      "geometry": {
        "type": "Point",
        "coordinates": [
          7.737401303917311,
          17.08445487282151
        ]
      }
    },
    {
      "type": "Feature",
      "properties": {
        "norad_id": 32052,
        "name": "COSMOS 2429",
        "group": "musson",
        "lat": -73.78411989793354,
        "lon": -166.50018169432457,
        "alt_km": 1016.0687568957419,
        "timestamp": "2025-12-05T18:53:13.551841+00:00",
        "meta_object_name": "COSMOS 2429",
        "meta_object_id": "2007-038A",
        "meta_epoch": "2025-12-05T07:10:22.268640",
        "meta_mean_motion": 13.75148277,
        "meta_eccentricity": 0.00395595,
        "meta_inclination": 82.9804,
        "meta_ra_of_asc_node": 348.7947,
        "meta_arg_of_pericenter": 58.1059,
        "meta_mean_anomaly": 302.3937,
        "meta_ephemeris_type": 0,
        "meta_classification_type": "U",
        "meta_norad_cat_id": 32052,
        "meta_element_set_no": 999,
        "meta_rev_at_epoch": 91500,
        "meta_bstar": 7.1141468e-05,
        "meta_mean_motion_dot": 8.4e-07,
        "meta_mean_motion_ddot": 0,
        "tle_line1": "1 32052U 07038A   25339.29886885  .00000084  00000+0  71141-4 0  9995",
        "tle_line2": "2 32052  82.9804 348.7947 0039559  58.1059 302.3937 13.75148277915003"
      },
      "geometry": {
        "type": "Point",
        "coordinates": [
          -166.50018169432457,
          -73.78411989793354
        ]
      }
    },
    {
      "type": "Feature",
      "properties": {
        "norad_id": 35635,
        "name": "COSMOS 2454",
        "group": "musson",
        "lat": 17.320367875928877,
        "lon": -8.294488173281836,
        "alt_km": 924.2110554059127,
        "timestamp": "2025-12-05T18:53:13.551851+00:00",
        "meta_object_name": "COSMOS 2454",
        "meta_object_id": "2009-039A",
        "meta_epoch": "2025-12-05T06:50:36.858048",
        "meta_mean_motion": 13.89927284,
        "meta_eccentricity": 0.00205045,
        "meta_inclination": 82.9557,
        "meta_ra_of_asc_node": 174.2958,
        "meta_arg_of_pericenter": 93.6626,
        "meta_mean_anomaly": 79.0444,
        "meta_ephemeris_type": 0,
        "meta_classification_type": "U",
        "meta_norad_cat_id": 35635,
        "meta_element_set_no": 999,
        "meta_rev_at_epoch": 83046,
        "meta_bstar": 9.0705287e-05,
        "meta_mean_motion_dot": 1.28e-06,
        "meta_mean_motion_ddot": 0,
        "tle_line1": "1 35635U 09039A   25339.28514882  .00000128  00000+0  90705-4 0  9998",
        "tle_line2": "2 35635  82.9557 174.2958 0020504  93.6626  79.0444 13.89927284830461"
      },
      "geometry": {
        "type": "Point",
        "coordinates": [
          -8.294488173281836,
          17.320367875928877
        ]
      }
    },
    {
      "type": "Feature",
      "properties": {
        "norad_id": 36519,
        "name": "COSMOS 2463",
        "group": "musson",
        "lat": -59.98134443588795,
        "lon": 19.47616839502855,
        "alt_km": 975.258537197471,
        "timestamp": "2025-12-05T18:53:13.551862+00:00",
        "meta_object_name": "COSMOS 2463",
        "meta_object_id": "2010-017A",
        "meta_epoch": "2025-12-05T07:15:54.953568",
        "meta_mean_motion": 13.7164811,
        "meta_eccentricity": 0.00350448,
        "meta_inclination": 82.9619,
        "meta_ra_of_asc_node": 32.1774,
        "meta_arg_of_pericenter": 309.3987,
        "meta_mean_anomaly": 120.1637,
        "meta_ephemeris_type": 0,
        "meta_classification_type": "U",
        "meta_norad_cat_id": 36519,
        "meta_element_set_no": 999,
        "meta_rev_at_epoch": 78135,
        "meta_bstar": 8.7688532e-05,
        "meta_mean_motion_dot": 9.4e-07,
        "meta_mean_motion_ddot": 0,
        "tle_line1": "1 36519U 10017A   25339.30271937  .00000094  00000+0  87689-4 0  9991",
        "tle_line2": "2 36519  82.9619  32.1774 0035044 309.3987 120.1637 13.71648110781356"
      },
      "geometry": {
        "type": "Point",
        "coordinates": [
          19.47616839502855,
          -59.98134443588795
        ]
      }
    }
  ]
}